$$SOE
2460714.500000000, A.D. 2025-Feb-08 00:00:00.0000, -1.084964697348527E+09, -3.204340757849375E+09, 1.029553104232138E+09,
2460721.500000000, A.D. 2025-Feb-15 00:00:00.0000, -1.087864523358329E+09, -3.206858077023208E+09, 1.030943640318079E+09,
2460728.500000000, A.D. 2025-Feb-22 00:00:00.0000, -1.090763166426819E+09, -3.209371973183476E+09, 1.032333047861192E+09,
2460735.500000000, A.D. 2025-Mar-01 00:00:00.0000, -1.093660624716133E+09, -3.211882453806717E+09, 1.033721328587143E+09,
2460742.500000000, A.D. 2025-Mar-08 00:00:00.0000, -1.096556895309555E+09, -3.214389526454459E+09, 1.035108484064671E+09,
2460749.500000000, A.D. 2025-Mar-15 00:00:00.0000, -1.099451974233716E+09, -3.216893196937876E+09, 1.036494515861149E+09,
2460756.500000000, A.D. 2025-Mar-22 00:00:00.0000, -1.102345858688954E+09, -3.219393468895388E+09, 1.037879425786523E+09,
2460763.500000000, A.D. 2025-Mar-29 00:00:00.0000, -1.105238547910344E+09, -3.221890345624958E+09, 1.039263215828469E+09,
2460770.500000000, A.D. 2025-Apr-05 00:00:00.0000, -1.108130042334153E+09, -3.224383831032664E+09, 1.040645888005139E+09,
2460777.500000000, A.D. 2025-Apr-12 00:00:00.0000, -1.111020342995685E+09, -3.226873929593354E+09, 1.042027444320327E+09,
2460784.500000000, A.D. 2025-Apr-19 00:00:00.0000, -1.113909451345687E+09, -3.229360646204440E+09, 1.043407886765927E+09,
2460791.500000000, A.D. 2025-Apr-26 00:00:00.0000, -1.116797369213679E+09, -3.231843986135539E+09, 1.044787217329909E+09,
2460798.500000000, A.D. 2025-May-03 00:00:00.0000, -1.119684098804528E+09, -3.234323955054394E+09, 1.046165438000725E+09,
2460805.500000000, A.D. 2025-May-10 00:00:00.0000, -1.122569642699655E+09, -3.236800559120066E+09, 1.047542550766053E+09,
2460812.500000000, A.D. 2025-May-17 00:00:00.0000, -1.125454003826179E+09, -3.239273805184094E+09, 1.048918557599021E+09,
2460819.500000000, A.D. 2025-May-24 00:00:00.0000, -1.128337185220042E+09, -3.241743701153826E+09, 1.050293460411426E+09,
2460826.500000000, A.D. 2025-May-31 00:00:00.0000, -1.131219189165368E+09, -3.244210256206656E+09, 1.051667260960971E+09,
2460833.500000000, A.D. 2025-Jun-07 00:00:00.0000, -1.134100016110976E+09, -3.246673479650214E+09, 1.053039960847759E+09,
2460840.500000000, A.D. 2025-Jun-14 00:00:00.0000, -1.136979665728618E+09, -3.249133379095081E+09, 1.054411561762401E+09,
2460847.500000000, A.D. 2025-Jun-21 00:00:00.0000, -1.139858138896157E+09, -3.251589961211277E+09, 1.055782065606842E+09,
2460854.500000000, A.D. 2025-Jun-28 00:00:00.0000, -1.142735437477511E+09, -3.254043233303627E+09, 1.057151474345209E+09,
2460861.500000000, A.D. 2025-Jul-05 00:00:00.0000, -1.145611563416060E+09, -3.256493203549385E+09, 1.058519789900090E+09,
2460868.500000000, A.D. 2025-Jul-12 00:00:00.0000, -1.148486518332532E+09, -3.258939880703322E+09, 1.059887014137716E+09,
2460875.500000000, A.D. 2025-Jul-19 00:00:00.0000, -1.151360303437799E+09, -3.261383273845163E+09, 1.061253148877734E+09,
2460882.500000000, A.D. 2025-Jul-26 00:00:00.0000, -1.154232919550638E+09, -3.263823392225832E+09, 1.062618195903779E+09,
2460889.500000000, A.D. 2025-Aug-02 00:00:00.0000, -1.157104367155083E+09, -3.266260245190665E+09, 1.063982156970729E+09,
2460896.500000000, A.D. 2025-Aug-09 00:00:00.0000, -1.159974646473952E+09, -3.268693842194008E+09, 1.065345033805433E+09,
2460903.500000000, A.D. 2025-Aug-16 00:00:00.0000, -1.162843757481588E+09, -3.271124192968165E+09, 1.066706828088873E+09,
2460910.500000000, A.D. 2025-Aug-23 00:00:00.0000, -1.165711699563217E+09, -3.273551307829916E+09, 1.068067541394470E+09,
2460917.500000000, A.D. 2025-Aug-30 00:00:00.0000, -1.168578470491953E+09, -3.275975197410345E+09, 1.069427175110950E+09,
2460924.500000000, A.D. 2025-Sep-06 00:00:00.0000, -1.171444066141606E+09, -3.278395870807500E+09, 1.070785730561836E+09,
2460931.500000000, A.D. 2025-Sep-13 00:00:00.0000, -1.174308482606035E+09, -3.280813334644609E+09, 1.072143209272158E+09,
2460938.500000000, A.D. 2025-Sep-20 00:00:00.0000, -1.177171717451811E+09, -3.283227594678137E+09, 1.073499612948022E+09,
2460945.500000000, A.D. 2025-Sep-27 00:00:00.0000, -1.180033769045654E+09, -3.285638656843917E+09, 1.074854943326445E+09,
2460952.500000000, A.D. 2025-Oct-04 00:00:00.0000, -1.182894635973321E+09, -3.288046527202003E+09, 1.076209202124676E+09,
2460959.500000000, A.D. 2025-Oct-11 00:00:00.0000, -1.185754316923612E+09, -3.290451211723013E+09, 1.077562391046315E+09,
2460966.500000000, A.D. 2025-Oct-18 00:00:00.0000, -1.188612810753824E+09, -3.292852716190148E+09, 1.078914511795820E+09,
2460973.500000000, A.D. 2025-Oct-25 00:00:00.0000, -1.191470116597116E+09, -3.295251046205530E+09, 1.080265566089482E+09,
2460980.500000000, A.D. 2025-Nov-01 00:00:00.0000, -1.194326233972390E+09, -3.297646207284979E+09, 1.081615555660399E+09,
2460987.500000000, A.D. 2025-Nov-08 00:00:00.0000, -1.197181162862177E+09, -3.300038205072192E+09, 1.082964482251577E+09,
2460994.500000000, A.D. 2025-Nov-15 00:00:00.0000, -1.200034903610707E+09, -3.302427045730408E+09, 1.084312347578600E+09,
2461001.500000000, A.D. 2025-Nov-22 00:00:00.0000, -1.202887456239543E+09, -3.304812736290987E+09, 1.085659153242704E+09,
2461008.500000000, A.D. 2025-Nov-29 00:00:00.0000, -1.205738819334044E+09, -3.307195283823500E+09, 1.087004900700866E+09,
2461015.500000000, A.D. 2025-Dec-06 00:00:00.0000, -1.208588990778116E+09, -3.309574693562910E+09, 1.088349591490462E+09,
2461022.500000000, A.D. 2025-Dec-13 00:00:00.0000, -1.211437969903660E+09, -3.311950969363850E+09, 1.089693227393127E+09,
2461029.500000000, A.D. 2025-Dec-20 00:00:00.0000, -1.214285757561538E+09, -3.314324115458463E+09, 1.091035810300929E+09,
2461036.500000000, A.D. 2025-Dec-27 00:00:00.0000, -1.217132355187898E+09, -3.316694136926081E+09, 1.092377342095029E+09,
2461043.500000000, A.D. 2026-Jan-03 00:00:00.0000, -1.219977764325057E+09, -3.319061039489749E+09, 1.093717824620354E+09,
2461050.500000000, A.D. 2026-Jan-10 00:00:00.0000, -1.222821986487207E+09, -3.321424829317818E+09, 1.095057259690765E+09,
2461057.500000000, A.D. 2026-Jan-17 00:00:00.0000, -1.225665023138359E+09, -3.323785512921349E+09, 1.096395649095959E+09,
2461064.500000000, A.D. 2026-Jan-24 00:00:00.0000, -1.228506875704597E+09, -3.326143097123786E+09, 1.097732994604929E+09,
2461071.500000000, A.D. 2026-Jan-31 00:00:00.0000, -1.231347545597179E+09, -3.328497589109375E+09, 1.099069297963300E+09,
2461078.500000000, A.D. 2026-Feb-07 00:00:00.0000, -1.234187034184976E+09, -3.330848996606743E+09, 1.100404560874345E+09,
2461085.500000000, A.D. 2026-Feb-14 00:00:00.0000, -1.237025342463183E+09, -3.333197328222060E+09, 1.101738784939330E+09,
2461092.500000000, A.D. 2026-Feb-21 00:00:00.0000, -1.239862470030751E+09, -3.335542593343947E+09, 1.103071971568882E+09,
2461099.500000000, A.D. 2026-Feb-28 00:00:00.0000, -1.242698414461371E+09, -3.337884800466053E+09, 1.104404122059263E+09,
2461106.500000000, A.D. 2026-Mar-07 00:00:00.0000, -1.245533173126557E+09, -3.340223955876922E+09, 1.105735237863071E+09,
2461113.500000000, A.D. 2026-Mar-14 00:00:00.0000, -1.248366744695129E+09, -3.342560065049697E+09, 1.107065320609215E+09,
2461120.500000000, A.D. 2026-Mar-21 00:00:00.0000, -1.251199128526212E+09, -3.344893133833677E+09, 1.108394371945605E+09,
2461127.500000000, A.D. 2026-Mar-28 00:00:00.0000, -1.254030323965127E+09, -3.347223168418950E+09, 1.109722393473014E+09,
2461134.500000000, A.D. 2026-Apr-04 00:00:00.0000, -1.256860330145933E+09, -3.349550175039831E+09, 1.111049386746745E+09,
2461141.500000000, A.D. 2026-Apr-11 00:00:00.0000, -1.259689146026655E+09, -3.351874159777009E+09, 1.112375353291740E+09,
2461148.500000000, A.D. 2026-Apr-18 00:00:00.0000, -1.262516770497823E+09, -3.354195128465144E+09, 1.113700294616171E+09,
2461155.500000000, A.D. 2026-Apr-25 00:00:00.0000, -1.265343202518246E+09, -3.356513086691209E+09, 1.115024212220723E+09,
2461162.500000000, A.D. 2026-May-02 00:00:00.0000, -1.268168441246994E+09, -3.358828039913211E+09, 1.116347107598517E+09,
2461169.500000000, A.D. 2026-May-09 00:00:00.0000, -1.270992486046611E+09, -3.361139993765509E+09, 1.117668982209002E+09,
2461176.500000000, A.D. 2026-May-16 00:00:00.0000, -1.273815335979227E+09, -3.363448954412353E+09, 1.118989837402579E+09,
2461183.500000000, A.D. 2026-May-23 00:00:00.0000, -1.276636988743460E+09, -3.365754927927258E+09, 1.120309674374837E+09,
2461190.500000000, A.D. 2026-May-30 00:00:00.0000, -1.279457441130336E+09, -3.368057918378605E+09, 1.121628494367142E+09,
2461197.500000000, A.D. 2026-Jun-06 00:00:00.0000, -1.282276691315444E+09, -3.370357927895006E+09, 1.122946298875092E+09,
2461204.500000000, A.D. 2026-Jun-13 00:00:00.0000, -1.285094739321298E+09, -3.372654958511484E+09, 1.124263089544735E+09,
2461211.500000000, A.D. 2026-Jun-20 00:00:00.0000, -1.287911586150938E+09, -3.374949012870302E+09, 1.125578868041420E+09,
2461218.500000000, A.D. 2026-Jun-27 00:00:00.0000, -1.290727233291097E+09, -3.377240094116303E+09, 1.126893636019042E+09,
2461225.500000000, A.D. 2026-Jul-04 00:00:00.0000, -1.293541682585096E+09, -3.379528205761569E+09, 1.128207395126080E+09,
2461232.500000000, A.D. 2026-Jul-11 00:00:00.0000, -1.296354936221508E+09, -3.381813351651310E+09, 1.129520147014092E+09,
2461239.500000000, A.D. 2026-Jul-18 00:00:00.0000, -1.299166996745906E+09, -3.384095536005157E+09, 1.130831893341989E+09,
2461246.500000000, A.D. 2026-Jul-25 00:00:00.0000, -1.301977867071271E+09, -3.386374763531068E+09, 1.132142635773845E+09,
2461253.500000000, A.D. 2026-Aug-01 00:00:00.0000, -1.304787550438983E+09, -3.388651039659925E+09, 1.133452375961715E+09,
2461260.500000000, A.D. 2026-Aug-08 00:00:00.0000, -1.307596050115564E+09, -3.390924370936592E+09, 1.134761115490654E+09,
2461267.500000000, A.D. 2026-Aug-15 00:00:00.0000, -1.310403368410200E+09, -3.393194765116933E+09, 1.136068855784596E+09,
2461274.500000000, A.D. 2026-Aug-22 00:00:00.0000, -1.313209505774192E+09, -3.395462229749364E+09, 1.137375598142648E+09,
$$EOE